NEOSSAT                 
1 39089U 13009D   17345.62890781  .00000008  00000-0  18173-4 0  9995
2 39089  98.5374 187.1303 0011951 129.5613 230.6630 14.34408862250821
